{
  "type": "FeatureCollection",
  "features": [
    {
      "type": "Feature",
      "properties": {
        "norad_id": 51444,
        "name": "CSG-2",
        "group": "resource",
        "lat": 39.26654279802615,
        "lon": 158.1932897500073,
        "alt_km": 618.7645296313021,
        "timestamp": "2025-12-09T07:41:32.860757+00:00",
        "meta_object_name": "CSG-2",
        "meta_object_id": "2022-008A",
        "meta_epoch": "2025-12-08T23:24:45.518112",
        "meta_mean_motion": 14.82157235,
        "meta_eccentricity": 0.00015063,
        "meta_inclination": 97.8801,
        "meta_ra_of_asc_node": 164.355,
        "meta_arg_of_pericenter": 82.4847,
        "meta_mean_anomaly": 277.6537,
        "meta_ephemeris_type": 0,
        "meta_classification_type": "U",
        "meta_norad_cat_id": 51444,
        "meta_element_set_no": 999,
        "meta_rev_at_epoch": 20841,
        "meta_bstar": 8.1361484e-05,
        "meta_mean_motion_dot": 5.96e-06,
        "meta_mean_motion_ddot": 0,
        "tle_line1": "1 51444U 22008A   25342.97552683  .00000596  00000+0  81361-4 0  9993",
        "tle_line2": "2 51444  97.8801 164.3550 0001506  82.4847 277.6537 14.82157235208412"
      },
      "geometry": {
        "type": "Point",
        "coordinates": [
          158.1932897500073,
          39.26654279802615
        ]
      }
    },
    {
      "type": "Feature",
      "properties": {
        "norad_id": 52912,
        "name": "GAOFEN-12 03",
        "group": "resource",
        "lat": -12.22611343407389,
        "lon": -127.53927020679015,
        "alt_km": 634.7095814181921,
        "timestamp": "2025-12-09T07:41:32.860767+00:00",
        "meta_object_name": "GAOFEN-12 03",
        "meta_object_id": "2022-069A",
        "meta_epoch": "2025-12-08T22:00:35.229024",
        "meta_mean_motion": 14.79595417,
        "meta_eccentricity": 0.000229,
        "meta_inclination": 97.8483,
        "meta_ra_of_asc_node": 230.354,
        "meta_arg_of_pericenter": 66.4054,
        "meta_mean_anomaly": 293.7399,
        "meta_ephemeris_type": 0,
        "meta_classification_type": "U",
        "meta_norad_cat_id": 52912,
        "meta_element_set_no": 999,
        "meta_rev_at_epoch": 18647,
        "meta_bstar": 0.00028370715,
        "meta_mean_motion_dot": 2.075e-05,
        "meta_mean_motion_ddot": 0,
        "tle_line1": "1 52912U 22069A   25342.91707441  .00002075  00000+0  28371-3 0  9994",
        "tle_line2": "2 52912  97.8483 230.3540 0002290  66.4054 293.7399 14.79595417186475"
      },
      "geometry": {
        "type": "Point",
        "coordinates": [
          -127.53927020679015,
          -12.22611343407389
        ]
      }
    },
    {
      "type": "Feature",
      "properties": {
        "norad_id": 54754,
        "name": "SWOT",
        "group": "resource",
        "lat": -37.336905790760106,
        "lon": 121.25832182370442,
        "alt_km": 899.3930740004998,
        "timestamp": "2025-12-09T07:41:32.860778+00:00",
        "meta_object_name": "SWOT",
        "meta_object_id": "2022-173A",
        "meta_epoch": "2025-12-08T23:47:36.947040",
        "meta_mean_motion": 14.00173838,
        "meta_eccentricity": 3.42e-05,
        "meta_inclination": 77.6103,
        "meta_ra_of_asc_node": 292.0497,
        "meta_arg_of_pericenter": 122.948,
        "meta_mean_anomaly": 237.1704,
        "meta_ephemeris_type": 0,
        "meta_classification_type": "U",
        "meta_norad_cat_id": 54754,
        "meta_element_set_no": 999,
        "meta_rev_at_epoch": 15253,
        "meta_bstar": 7.7321923e-05,
        "meta_mean_motion_dot": 1.11e-06,
        "meta_mean_motion_ddot": 0,
        "tle_line1": "1 54754U 22173A   25342.99139985  .00000111  00000+0  77322-4 0  9996",
        "tle_line2": "2 54754  77.6103 292.0497 0000342 122.9480 237.1704 14.00173838152534"
      },
      "geometry": {
        "type": "Point",
        "coordinates": [
          121.25832182370442,
          -37.336905790760106
        ]
      }
    },
    {
      "type": "Feature",
      "properties": {
        "norad_id": 57654,
        "name": "GAOFEN-12 04",
        "group": "resource",
        "lat": 23.361243869187252,
        "lon": 82.57324295997401,
        "alt_km": 629.7769695223615,
        "timestamp": "2025-12-09T07:41:32.860788+00:00",
        "meta_object_name": "GAOFEN-12 04",
        "meta_object_id": "2023-123A",
        "meta_epoch": "2025-12-08T22:52:25.525344",
        "meta_mean_motion": 14.7968217,
        "meta_eccentricity": 0.000139,
        "meta_inclination": 97.9118,
        "meta_ra_of_asc_node": 258.7678,
        "meta_arg_of_pericenter": 73.7792,
        "meta_mean_anomaly": 286.3573,
        "meta_ephemeris_type": 0,
        "meta_classification_type": "U",
        "meta_norad_cat_id": 57654,
        "meta_element_set_no": 999,
        "meta_rev_at_epoch": 12449,
        "meta_bstar": 0.00027253236,
        "meta_mean_motion_dot": 1.995e-05,
        "meta_mean_motion_ddot": 0,
        "tle_line1": "1 57654U 23123A   25342.95307321  .00001995  00000+0  27253-3 0  9999",
        "tle_line2": "2 57654  97.9118 258.7678 0001390  73.7792 286.3573 14.79682170124494"
      },
      "geometry": {
        "type": "Point",
        "coordinates": [
          82.57324295997401,
          23.361243869187252
        ]
      }
    },
    {
      "type": "Feature",
      "properties": {
        "norad_id": 59065,
        "name": "PARS 1",
        "group": "resource",
        "lat": 19.020868932927506,
        "lon": 136.771669157325,
        "alt_km": 442.1956741669492,
        "timestamp": "2025-12-09T07:41:32.860799+00:00",
        "meta_object_name": "PARS 1",
        "meta_object_id": "2024-039Q",
        "meta_epoch": "2025-12-08T23:12:19.948320",
        "meta_mean_motion": 15.40844271,
        "meta_eccentricity": 0.00126863,
        "meta_inclination": 97.4637,
        "meta_ra_of_asc_node": 313.8202,
        "meta_arg_of_pericenter": 83.4205,
        "meta_mean_anomaly": 276.8485,
        "meta_ephemeris_type": 0,
        "meta_classification_type": "U",
        "meta_norad_cat_id": 59065,
        "meta_element_set_no": 999,
        "meta_rev_at_epoch": 9930,
        "meta_bstar": 0.00033221751,
        "meta_mean_motion_dot": 0.00013586,
        "meta_mean_motion_ddot": 0,
        "tle_line1": "1 59065U 24039Q   25342.96689755  .00013586  00000+0  33222-3 0  9991",
        "tle_line2": "2 59065  97.4637 313.8202 0012686  83.4205 276.8485 15.40844271 99304"
      },
      "geometry": {
        "type": "Point",
        "coordinates": [
          136.771669157325,
          19.020868932927506
        ]
      }
    },
    {
      "type": "Feature",
      "properties": {
        "norad_id": 59371,
        "name": "RESURS-P 4",
        "group": "resource",
        "lat": 50.816643053200984,
        "lon": -79.27036757118023,
        "alt_km": 463.88569088209897,
        "timestamp": "2025-12-09T07:41:32.860809+00:00",
        "meta_object_name": "RESURS-P 4",
        "meta_object_id": "2024-061A",
        "meta_epoch": "2025-12-08T23:37:52.434624",
        "meta_mean_motion": 15.32038574,
        "meta_eccentricity": 0.00017789,
        "meta_inclination": 97.2543,
        "meta_ra_of_asc_node": 289.3916,
        "meta_arg_of_pericenter": 53.0537,
        "meta_mean_anomaly": 307.0868,
        "meta_ephemeris_type": 0,
        "meta_classification_type": "U",
        "meta_norad_cat_id": 59371,
        "meta_element_set_no": 999,
        "meta_rev_at_epoch": 9463,
        "meta_bstar": 0.00016515615,
        "meta_mean_motion_dot": 5.032e-05,
        "meta_mean_motion_ddot": 0,
        "tle_line1": "1 59371U 24061A   25342.98463466  .00005032  00000+0  16516-3 0  9991",
        "tle_line2": "2 59371  97.2543 289.3916 0001778  53.0537 307.0868 15.32038574 94633"
      },
      "geometry": {
        "type": "Point",
        "coordinates": [
          -79.27036757118023,
          50.816643053200984
        ]
      }
    },
    {
      "type": "Feature",
      "properties": {
        "norad_id": 59625,
        "name": "LEGION 1",
        "group": "resource",
        "lat": 70.22329406077026,
        "lon": -100.45333600175239,
        "alt_km": 511.9915676086084,
        "timestamp": "2025-12-09T07:41:32.860820+00:00",
        "meta_object_name": "LEGION 1",
        "meta_object_id": "2024-081A",
        "meta_epoch": "2025-12-08T23:17:53.562912",
        "meta_mean_motion": 15.1642017,
        "meta_eccentricity": 0.00042642,
        "meta_inclination": 97.5213,
        "meta_ra_of_asc_node": 57.6413,
        "meta_arg_of_pericenter": 333.4762,
        "meta_mean_anomaly": 26.6252,
        "meta_ephemeris_type": 0,
        "meta_classification_type": "U",
        "meta_norad_cat_id": 59625,
        "meta_element_set_no": 999,
        "meta_rev_at_epoch": 8870,
        "meta_bstar": 0.00033857214,
        "meta_mean_motion_dot": 6.516e-05,
        "meta_mean_motion_ddot": 0,
        "tle_line1": "1 59625U 24081A   25342.97075883  .00006516  00000+0  33857-3 0  9991",
        "tle_line2": "2 59625  97.5213  57.6413 0004264 333.4762  26.6252 15.16420170 88709"
      },
      "geometry": {
        "type": "Point",
        "coordinates": [
          -100.45333600175239,
          70.22329406077026
        ]
      }
    }
  ]
}